{
  "type": "FeatureCollection",
  "features": [
    {
      "type": "Feature",
      "properties": {
        "norad_id": 31186,
        "name": "FENGYUN 1C DEB",
        "group": "fengyun-1c-debris",
        "lat": -48.66595942221604,
        "lon": 67.40743513071898,
        "alt_km": 873.801929468129,
        "timestamp": "2025-12-08T17:43:05.212148+00:00",
        "meta_object_name": "FENGYUN 1C DEB",
        "meta_object_id": "1999-025BJQ",
        "meta_epoch": "2025-12-07T00:08:36.055104",
        "meta_mean_motion": 14.12891869,
        "meta_eccentricity": 0.00265947,
        "meta_inclination": 99.1777,
        "meta_ra_of_asc_node": 256.2241,
        "meta_arg_of_pericenter": 78.4554,
        "meta_mean_anomaly": 344.6063,
        "meta_ephemeris_type": 0,
        "meta_classification_type": "U",
        "meta_norad_cat_id": 31186,
        "meta_element_set_no": 999,
        "meta_rev_at_epoch": 96024,
        "meta_bstar": 0.00076036897,
        "meta_mean_motion_dot": 1.373e-05,
        "meta_mean_motion_ddot": 0,
        "tle_line1": "1 31186U 99025BJQ 25341.00597286  .00001373  00000+0  76037-3 0  9995",
        "tle_line2": "2 31186  99.1777 256.2241 0026594  78.4554 344.6063 14.12891869960248"
      },
      "geometry": {
        "type": "Point",
        "coordinates": [
          67.40743513071898,
          -48.66595942221604
        ]
      }
    },
    {
      "type": "Feature",
      "properties": {
        "norad_id": 31187,
        "name": "FENGYUN 1C DEB",
        "group": "fengyun-1c-debris",
        "lat": 7.592043104228733,
        "lon": 26.971076213007308,
        "alt_km": 626.0648260739072,
        "timestamp": "2025-12-08T17:43:05.212159+00:00",
        "meta_object_name": "FENGYUN 1C DEB",
        "meta_object_id": "1999-025BJR",
        "meta_epoch": "2025-12-08T02:05:56.105952",
        "meta_mean_motion": 14.59064082,
        "meta_eccentricity": 0.0220999,
        "meta_inclination": 99.2411,
        "meta_ra_of_asc_node": 205.0034,
        "meta_arg_of_pericenter": 237.8889,
        "meta_mean_anomaly": 120.0688,
        "meta_ephemeris_type": 0,
        "meta_classification_type": "U",
        "meta_norad_cat_id": 31187,
        "meta_element_set_no": 999,
        "meta_rev_at_epoch": 69032,
        "meta_bstar": 0.0040882175,
        "meta_mean_motion_dot": 0.00027069,
        "meta_mean_motion_ddot": 0,
        "tle_line1": "1 31187U 99025BJR 25342.08745493  .00027069  00000+0  40882-2 0  9998",
        "tle_line2": "2 31187  99.2411 205.0034 0220999 237.8889 120.0688 14.59064082690322"
      },
      "geometry": {
        "type": "Point",
        "coordinates": [
          26.971076213007308,
          7.592043104228733
        ]
      }
    },
    {
      "type": "Feature",
      "properties": {
        "norad_id": 31188,
        "name": "FENGYUN 1C DEB",
        "group": "fengyun-1c-debris",
        "lat": 60.874760332157,
        "lon": -113.4106749020261,
        "alt_km": 840.9467127124162,
        "timestamp": "2025-12-08T17:43:05.212170+00:00",
        "meta_object_name": "FENGYUN 1C DEB",
        "meta_object_id": "1999-025BJS",
        "meta_epoch": "2025-12-08T03:48:14.539104",
        "meta_mean_motion": 14.23776704,
        "meta_eccentricity": 0.00597776,
        "meta_inclination": 98.7486,
        "meta_ra_of_asc_node": 49.9687,
        "meta_arg_of_pericenter": 262.6609,
        "meta_mean_anomaly": 125.6829,
        "meta_ephemeris_type": 0,
        "meta_classification_type": "U",
        "meta_norad_cat_id": 31188,
        "meta_element_set_no": 999,
        "meta_rev_at_epoch": 96271,
        "meta_bstar": 0.0019856505,
        "meta_mean_motion_dot": 4.581e-05,
        "meta_mean_motion_ddot": 0,
        "tle_line1": "1 31188U 99025BJS 25342.15850161  .00004581  00000+0  19857-2 0  9998",
        "tle_line2": "2 31188  98.7486  49.9687 0059777 262.6609 125.6829 14.23776704962713"
      },
      "geometry": {
        "type": "Point",
        "coordinates": [
          -113.4106749020261,
          60.874760332157
        ]
      }
    },
    {
      "type": "Feature",
      "properties": {
        "norad_id": 31190,
        "name": "FENGYUN 1C DEB",
        "group": "fengyun-1c-debris",
        "lat": -26.53240034823057,
        "lon": 171.13990097207468,
        "alt_km": 865.2897722466969,
        "timestamp": "2025-12-08T17:43:05.212180+00:00",
        "meta_object_name": "FENGYUN 1C DEB",
        "meta_object_id": "1999-025BJU",
        "meta_epoch": "2025-12-07T23:37:13.807776",
        "meta_mean_motion": 14.03580806,
        "meta_eccentricity": 0.00674854,
        "meta_inclination": 98.8187,
        "meta_ra_of_asc_node": 354.8541,
        "meta_arg_of_pericenter": 272.8682,
        "meta_mean_anomaly": 86.4763,
        "meta_ephemeris_type": 0,
        "meta_classification_type": "U",
        "meta_norad_cat_id": 31190,
        "meta_element_set_no": 999,
        "meta_rev_at_epoch": 95480,
        "meta_bstar": 0.0011033227,
        "meta_mean_motion_dot": 1.723e-05,
        "meta_mean_motion_ddot": 0,
        "tle_line1": "1 31190U 99025BJU 25341.98418759  .00001723  00000+0  11033-2 0  9997",
        "tle_line2": "2 31190  98.8187 354.8541 0067485 272.8682  86.4763 14.03580806954807"
      },
      "geometry": {
        "type": "Point",
        "coordinates": [
          171.13990097207468,
          -26.53240034823057
        ]
      }
    },
    {
      "type": "Feature",
      "properties": {
        "norad_id": 31191,
        "name": "FENGYUN 1C DEB",
        "group": "fengyun-1c-debris",
        "lat": -80.02179416898895,
        "lon": 2.0344325433347064,
        "alt_km": 728.7313283994235,
        "timestamp": "2025-12-08T17:43:05.212191+00:00",
        "meta_object_name": "FENGYUN 1C DEB",
        "meta_object_id": "1999-025BJV",
        "meta_epoch": "2025-12-06T04:29:23.330112",
        "meta_mean_motion": 14.40767055,
        "meta_eccentricity": 0.00919559,
        "meta_inclination": 98.7824,
        "meta_ra_of_asc_node": 240.9016,
        "meta_arg_of_pericenter": 214.1234,
        "meta_mean_anomaly": 145.4021,
        "meta_ephemeris_type": 0,
        "meta_classification_type": "U",
        "meta_norad_cat_id": 31191,
        "meta_element_set_no": 999,
        "meta_rev_at_epoch": 97918,
        "meta_bstar": 0.00064358573,
        "meta_mean_motion_dot": 2.116e-05,
        "meta_mean_motion_ddot": 0,
        "tle_line1": "1 31191U 99025BJV 25340.18707558  .00002116  00000+0  64359-3 0  9994",
        "tle_line2": "2 31191  98.7824 240.9016 0091955 214.1234 145.4021 14.40767055979183"
      },
      "geometry": {
        "type": "Point",
        "coordinates": [
          2.0344325433347064,
          -80.02179416898895
        ]
      }
    },
    {
      "type": "Feature",
      "properties": {
        "norad_id": 31192,
        "name": "FENGYUN 1C DEB",
        "group": "fengyun-1c-debris",
        "lat": 81.4298477956509,
        "lon": -126.46298280711594,
        "alt_km": 644.1983544747109,
        "timestamp": "2025-12-08T17:43:05.212202+00:00",
        "meta_object_name": "FENGYUN 1C DEB",
        "meta_object_id": "1999-025BJW",
        "meta_epoch": "2025-12-06T09:31:52.381920",
        "meta_mean_motion": 14.20945151,
        "meta_eccentricity": 0.02595651,
        "meta_inclination": 98.5531,
        "meta_ra_of_asc_node": 324.2808,
        "meta_arg_of_pericenter": 122.0726,
        "meta_mean_anomaly": 240.594,
        "meta_ephemeris_type": 0,
        "meta_classification_type": "U",
        "meta_norad_cat_id": 31192,
        "meta_element_set_no": 999,
        "meta_rev_at_epoch": 96653,
        "meta_bstar": 0.00046164619,
        "meta_mean_motion_dot": 1.361e-05,
        "meta_mean_motion_ddot": 0,
        "tle_line1": "1 31192U 99025BJW 25340.39713405  .00001361  00000+0  46165-3 0  9992",
        "tle_line2": "2 31192  98.5531 324.2808 0259565 122.0726 240.5940 14.20945151966533"
      },
      "geometry": {
        "type": "Point",
        "coordinates": [
          -126.46298280711594,
          81.4298477956509
        ]
      }
    },
    {
      "type": "Feature",
      "properties": {
        "norad_id": 31194,
        "name": "FENGYUN 1C DEB",
        "group": "fengyun-1c-debris",
        "lat": 29.69762037438421,
        "lon": 56.80702601770166,
        "alt_km": 800.2661899547775,
        "timestamp": "2025-12-08T17:43:05.212212+00:00",
        "meta_object_name": "FENGYUN 1C DEB",
        "meta_object_id": "1999-025BJY",
        "meta_epoch": "2025-12-08T03:38:45.467232",
        "meta_mean_motion": 14.36605997,
        "meta_eccentricity": 0.00576405,
        "meta_inclination": 98.963,
        "meta_ra_of_asc_node": 231.0327,
        "meta_arg_of_pericenter": 292.8556,
        "meta_mean_anomaly": 66.6549,
        "meta_ephemeris_type": 0,
        "meta_classification_type": "U",
        "meta_norad_cat_id": 31194,
        "meta_element_set_no": 999,
        "meta_rev_at_epoch": 97061,
        "meta_bstar": 0.001472191,
        "meta_mean_motion_dot": 4.367e-05,
        "meta_mean_motion_ddot": 0,
        "tle_line1": "1 31194U 99025BJY 25342.15191513  .00004367  00000+0  14722-2 0  9992",
        "tle_line2": "2 31194  98.9630 231.0327 0057640 292.8556  66.6549 14.36605997970611"
      },
      "geometry": {
        "type": "Point",
        "coordinates": [
          56.80702601770166,
          29.69762037438421
        ]
      }
    }
  ]
}